CCSDS_OMM_VERS = 2.0
CREATION_DATE  = 
ORIGINATOR     = 

OBJECT_NAME    = SOYUZ-MS 28
OBJECT_ID      = 2025-275A
CENTER_NAME    = EARTH
REF_FRAME      = TEME
TIME_SYSTEM    = UTC
MEAN_ELEMENT_THEORY = SGP/SGP4

EPOCH          = 2025-12-21T10:34:25.499424
MEAN_MOTION    = 15.49701473
ECCENTRICITY   = .0003157
INCLINATION    = 51.6323
RA_OF_ASC_NODE = 99.3910
ARG_OF_PERICENTER = 280.7962
MEAN_ANOMALY   = 79.2671

EPHEMERIS_TYPE = 0
CLASSIFICATION_TYPE = U
NORAD_CAT_ID   = 66664
ELEMENT_SET_NO = 999
REV_AT_EPOCH   = 379
BSTAR          = .16671E-3
MEAN_MOTION_DOT = .8972E-4
MEAN_MOTION_DDOT = 0

CCSDS_OMM_VERS = 2.0
CREATION_DATE  = 
ORIGINATOR     = 

OBJECT_NAME    = 1998-067XS
OBJECT_ID      = 1998-067XS
CENTER_NAME    = EARTH
REF_FRAME      = TEME
TIME_SYSTEM    = UTC
MEAN_ELEMENT_THEORY = SGP/SGP4

EPOCH          = 2025-12-21T11:50:07.454976
MEAN_MOTION    = 15.51010585
ECCENTRICITY   = .0002953
INCLINATION    = 51.6316
RA_OF_ASC_NODE = 98.9926
ARG_OF_PERICENTER = 243.0961
MEAN_ANOMALY   = 116.9727

EPHEMERIS_TYPE = 0
CLASSIFICATION_TYPE = U
NORAD_CAT_ID   = 66906
ELEMENT_SET_NO = 999
REV_AT_EPOCH   = 297
BSTAR          = .42362E-3
MEAN_MOTION_DOT = .24678E-3
MEAN_MOTION_DDOT = 0

CCSDS_OMM_VERS = 2.0
CREATION_DATE  = 
ORIGINATOR     = 

OBJECT_NAME    = 1998-067XT
OBJECT_ID      = 1998-067XT
CENTER_NAME    = EARTH
REF_FRAME      = TEME
TIME_SYSTEM    = UTC
MEAN_ELEMENT_THEORY = SGP/SGP4

EPOCH          = 2025-12-21T11:36:33.971328
MEAN_MOTION    = 15.52463027
ECCENTRICITY   = .0003879
INCLINATION    = 51.6316
RA_OF_ASC_NODE = 98.9297
ARG_OF_PERICENTER = 279.7244
MEAN_ANOMALY   = 80.3308

EPHEMERIS_TYPE = 0
CLASSIFICATION_TYPE = U
NORAD_CAT_ID   = 66907
ELEMENT_SET_NO = 999
REV_AT_EPOCH   = 297
BSTAR          = .87766E-3
MEAN_MOTION_DOT = .54612E-3
MEAN_MOTION_DDOT = 0

CCSDS_OMM_VERS = 2.0
CREATION_DATE  = 
ORIGINATOR     = 

OBJECT_NAME    = 1998-067XU
OBJECT_ID      = 1998-067XU
CENTER_NAME    = EARTH
REF_FRAME      = TEME
TIME_SYSTEM    = UTC
MEAN_ELEMENT_THEORY = SGP/SGP4

EPOCH          = 2025-12-21T00:46:29.963136
MEAN_MOTION    = 15.52510982
ECCENTRICITY   = .00039042
INCLINATION    = 51.6311
RA_OF_ASC_NODE = 101.1653
ARG_OF_PERICENTER = 276.2494
MEAN_ANOMALY   = 83.8051

EPHEMERIS_TYPE = 0
CLASSIFICATION_TYPE = U
NORAD_CAT_ID   = 66908
ELEMENT_SET_NO = 999
REV_AT_EPOCH   = 290
BSTAR          = .80289362E-3
MEAN_MOTION_DOT = .49977E-3
MEAN_MOTION_DDOT = 0

CCSDS_OMM_VERS = 2.0
CREATION_DATE  = 
ORIGINATOR     = 

OBJECT_NAME    = SILVERSAT
OBJECT_ID      = 1998-067XV
CENTER_NAME    = EARTH
REF_FRAME      = TEME
TIME_SYSTEM    = UTC
MEAN_ELEMENT_THEORY = SGP/SGP4

EPOCH          = 2025-12-21T00:44:56.475744
MEAN_MOTION    = 15.52677939
ECCENTRICITY   = .0003815
INCLINATION    = 51.6312
RA_OF_ASC_NODE = 101.1583
ARG_OF_PERICENTER = 279.3746
MEAN_ANOMALY   = 80.6813

EPHEMERIS_TYPE = 0
CLASSIFICATION_TYPE = U
NORAD_CAT_ID   = 66909
ELEMENT_SET_NO = 999
REV_AT_EPOCH   = 290
BSTAR          = .85685378E-3
MEAN_MOTION_DOT = .53716E-3
MEAN_MOTION_DDOT = 0

CCSDS_OMM_VERS = 2.0
CREATION_DATE  = 
ORIGINATOR     = 

OBJECT_NAME    = 1998-067XW
OBJECT_ID      = 1998-067XW
CENTER_NAME    = EARTH
REF_FRAME      = TEME
TIME_SYSTEM    = UTC
MEAN_ELEMENT_THEORY = SGP/SGP4

EPOCH          = 2025-12-21T00:42:22.362336
MEAN_MOTION    = 15.52668327
ECCENTRICITY   = .00041762
INCLINATION    = 51.6309
RA_OF_ASC_NODE = 101.1459
ARG_OF_PERICENTER = 252.7985
MEAN_ANOMALY   = 107.2548

EPHEMERIS_TYPE = 0
CLASSIFICATION_TYPE = U
NORAD_CAT_ID   = 66910
ELEMENT_SET_NO = 999
REV_AT_EPOCH   = 290
BSTAR          = .74556419E-3
MEAN_MOTION_DOT = .46622E-3
MEAN_MOTION_DDOT = 0

CCSDS_OMM_VERS = 2.0
CREATION_DATE  = 
ORIGINATOR     = 

OBJECT_NAME    = 1998-067XX
OBJECT_ID      = 1998-067XX
CENTER_NAME    = EARTH
REF_FRAME      = TEME
TIME_SYSTEM    = UTC
MEAN_ELEMENT_THEORY = SGP/SGP4

EPOCH          = 2025-12-21T06:49:15.408768
MEAN_MOTION    = 15.53123462
ECCENTRICITY   = .0003853
INCLINATION    = 51.6308
RA_OF_ASC_NODE = 99.8474
ARG_OF_PERICENTER = 259.7262
MEAN_ANOMALY   = 100.3293

EPHEMERIS_TYPE = 0
CLASSIFICATION_TYPE = U
NORAD_CAT_ID   = 66911
ELEMENT_SET_NO = 999
REV_AT_EPOCH   = 293
BSTAR          = .94843E-3
MEAN_MOTION_DOT = .60532E-3
MEAN_MOTION_DDOT = 0

CCSDS_OMM_VERS = 2.0
CREATION_DATE  = 
ORIGINATOR     = 

OBJECT_NAME    = 1998-067XY
OBJECT_ID      = 1998-067XY
CENTER_NAME    = EARTH
REF_FRAME      = TEME
TIME_SYSTEM    = UTC
MEAN_ELEMENT_THEORY = SGP/SGP4

EPOCH          = 2025-12-21T11:41:25.287072
MEAN_MOTION    = 15.51934859
ECCENTRICITY   = .0004003
INCLINATION    = 51.6317
RA_OF_ASC_NODE = 98.9521
ARG_OF_PERICENTER = 271.7448
MEAN_ANOMALY   = 88.3083

EPHEMERIS_TYPE = 0
CLASSIFICATION_TYPE = U
NORAD_CAT_ID   = 66912
ELEMENT_SET_NO = 999
REV_AT_EPOCH   = 296
BSTAR          = .71547E-3
MEAN_MOTION_DOT = .4353E-3
MEAN_MOTION_DDOT = 0

